{
    "links": {
        "self": "http://www.neowsapp.com/rest/v1/neo/3252572?api_key=iIulBulltgU6a56xZRHN4H3l9WmuAYTsLGpBGhQ2"
    },
    "id": "3252572",
    "neo_reference_id": "3252572",
    "name": "(2004 RN251)",
    "designation": "2004 RN251",
    "nasa_jpl_url": "http://ssd.jpl.nasa.gov/sbdb.cgi?sstr=3252572",
    "absolute_magnitude_h": 26.1,
    "estimated_diameter": {
        "kilometers": {
            "estimated_diameter_min": 0.0160160338,
            "estimated_diameter_max": 0.0358129403
        },
        "meters": {
            "estimated_diameter_min": 16.0160337979,
            "estimated_diameter_max": 35.8129403019
        },
        "miles": {
            "estimated_diameter_min": 0.0099518989,
            "estimated_diameter_max": 0.0222531225
        },
        "feet": {
            "estimated_diameter_min": 52.5460443254,
            "estimated_diameter_max": 117.4965270602
        }
    },
    "is_potentially_hazardous_asteroid": false,
    "close_approach_data": [
        {
            "close_approach_date": "2004-09-18",
            "close_approach_date_full": "2004-Sep-18 08:27",
            "epoch_date_close_approach": 1095496020000,
            "relative_velocity": {
                "kilometers_per_second": "13.7459812262",
                "kilometers_per_hour": "49485.5324142268",
                "miles_per_hour": "30748.3854048288"
            },
            "miss_distance": {
                "astronomical": "0.0108740292",
                "lunar": "4.2299973588",
                "kilometers": "1626731.606637804",
                "miles": "1010804.1487535352"
            },
            "orbiting_body": "Earth"
        }
    ],
    "orbital_data": {
        "orbit_id": "9",
        "orbit_determination_date": "2017-04-06 09:12:16",
        "first_observation_date": "2004-09-15",
        "last_observation_date": "2004-09-17",
        "data_arc_in_days": 2,
        "observations_used": 27,
        "orbit_uncertainty": "8",
        "minimum_orbit_intersection": ".00447683",
        "jupiter_tisserand_invariant": "4.089",
        "epoch_osculation": "2453264.5",
        "eccentricity": ".5290329726104982",
        "semi_major_axis": "1.661134183959391",
        "inclination": "4.361193780795596",
        "ascending_node_longitude": "179.8331111549846",
        "orbital_period": "781.99774402305",
        "perihelion_distance": ".7823394287144401",
        "perihelion_argument": "245.4278559533575",
        "aphelion_distance": "2.539928939204342",
        "perihelion_time": "2453313.720920287438",
        "mean_anomaly": "337.3406874394316",
        "mean_motion": ".4603593843480305",
        "equinox": "J2000",
        "orbit_class": {
            "orbit_class_type": "APO",
            "orbit_class_description": "Near-Earth asteroid orbits which cross the Earth’s orbit similar to that of 1862 Apollo",
            "orbit_class_range": "a (semi-major axis) > 1.0 AU; q (perihelion) < 1.017 AU"
        }
    },
    "is_sentry_object": false
}